BEIDOU-2 IGSO-1 (C06)   
1 36828U 10036A   24239.74885145 -.00000142  00000+0  00000+0 0  9995
2 36828  54.2568 168.9291 0041317 205.8934 337.3880  1.00261558 51592
BEIDOU-2 G4 (C04)       
1 37210U 10057A   24240.19980066 -.00000124  00000+0  00000+0 0  9993
2 37210   2.0131  69.5343 0006591 156.7651 341.6540  1.00272195 50672
BEIDOU-2 IGSO-2 (C07)   
1 37256U 10068A   24239.52832676 -.00000180  00000+0  00000+0 0  9995
2 37256  48.7480 279.9594 0040638 216.2278 137.1460  1.00280674 50173
BEIDOU-2 IGSO-3 (C08)   
1 37384U 11013A   24239.89616897 -.00000166  00000+0  00000+0 0  9997
2 37384  61.4640  46.4276 0031851 173.3004 184.9130  1.00290771 49043
BEIDOU-2 IGSO-4 (C09)   
1 37763U 11038A   24239.87870427 -.00000108  00000+0  00000+0 0  9990
2 37763  54.5636 171.5580 0129194 229.5316 343.9818  1.00292513 48032
BEIDOU-2 IGSO-5 (C10)   
1 37948U 11073A   24240.08056892 -.00000138  00000+0  00000+0 0  9994
2 37948  48.8809 279.6447 0103207 221.1359 320.2713  1.00277245 46797
BEIDOU-2 G5 (C05)       
1 38091U 12008A   24240.14486038  .00000045  00000+0  00000+0 0  9995
2 38091   2.2457  71.2488 0004252 214.7574 160.6928  1.00270483 45877
BEIDOU-2 M3 (C11)       
1 38250U 12018A   24239.81094064 -.00000104  00000+0  00000+0 0  9996
2 38250  56.2881 326.9926 0023510 260.5855  99.1908  1.86231188 84016
BEIDOU-2 M4 (C12)       
1 38251U 12018B   24240.27780617 -.00000103  00000+0  00000+0 0  9994
2 38251  56.1942 326.2431 0014435 260.0305  99.8490  1.86231879 84020
BEIDOU-2 M6 (C14)       
1 38775U 12050B   24238.91350026 -.00000033  00000+0  00000+0 0  9998
2 38775  55.9681  84.8321 0011684 348.4675  11.5763  1.86231095 81017
BEIDOU-2 G6 (C02)       
1 38953U 12059A   24240.07831003 -.00000187  00000+0  00000+0 0  9994
2 38953   2.7366  79.9529 0006720 314.8869  53.0728  1.00268114 43442
BEIDOU-3S IGSO-1S (C31) 
1 40549U 15019A   24240.50511622 -.00000174  00000+0  00000+0 0  9993
2 40549  50.4377 303.3483 0036761 196.2130 113.8212  1.00289930 34466
BEIDOU-3S M2S (C58)     
1 40748U 15037A   24239.94041118 -.00000101  00000+0  00000+0 0  9998
2 40748  55.4241 324.6306 0011503 246.6351 113.2882  1.86233172 61844
BEIDOU-3S M1S (C57)     
1 40749U 15037B   24239.13885694 -.00000099  00000+0  00000+0 0  9991
2 40749  55.4274 324.6444 0002626 323.3176  36.7094  1.86227461 61835
BEIDOU-3S IGSO-2S (C56) 
1 40938U 15053A   24239.46103418 -.00000097  00000+0  00000+0 0  9990
2 40938  50.2488 266.5805 0053507 189.4356 139.8500  1.00290177 32739
BEIDOU-2 IGSO-6 (C13)   
1 41434U 16021A   24239.93693198 -.00000132  00000+0  00000+0 0  9999
2 41434  59.2842  44.6317 0049100 221.0441 140.0858  1.00257971 30866
BEIDOU-2 G7 (C03)       
1 41586U 16037A   24239.90118663 -.00000366  00000+0  00000+0 0  9999
2 41586   1.5469  65.4477 0007128 358.1662 347.0048  1.00273581   275
BEIDOU-3 M1 (C19)       
1 43001U 17069A   24238.14250152 -.00000030  00000+0  00000+0 0  9992
2 43001  56.1180  84.9628 0007807 311.6289  48.3763  1.86231281 46294
BEIDOU-3 M2 (C20)       
1 43002U 17069B   24237.00601156 -.00000022  00000+0  00000+0 0  9992
2 43002  56.1158  85.0372 0006610 344.8738  15.1831  1.86230950 46263
BEIDOU-3 M7 (C27)       
1 43107U 18003A   24239.97613571 -.00000102  00000+0  00000+0 0  9998
2 43107  54.8824 325.1892 0003200  88.4293 271.6505  1.86232453 45084
BEIDOU-3 M8 (C28)       
1 43108U 18003B   24239.91716132 -.00000102  00000+0  00000+0 0  9990
2 43108  54.8754 325.1765 0004305 248.4030 111.5944  1.86230870 45080
BEIDOU-3 M4 (C22)       
1 43207U 18018A   24237.13670185 -.00000023  00000+0  00000+0 0  9997
2 43207  56.0756  85.0831 0005635  23.2903 336.8113  1.86231206 44417
BEIDOU-3 M3 (C21)       
1 43208U 18018B   24237.20333007 -.00000024  00000+0  00000+0 0  9996
2 43208  56.0753  85.0853 0006031 331.2405  28.8019  1.86231122 44419
BEIDOU-3 M9 (C29)       
1 43245U 18029A   24239.03474069 -.00000097  00000+0  00000+0 0  9996
2 43245  54.7638 322.9223 0001749 221.2291 138.8045  1.86232526 43603
BEIDOU-3 M10 (C30)      
1 43246U 18029B   24239.50125341 -.00000098  00000+0  00000+0 0  9996
2 43246  54.7611 322.9343 0002515   0.6830 359.3635  1.86232906 43605
BEIDOU-2 IGSO-7 (C16)   
1 43539U 18057A   24239.74859014 -.00000149  00000+0  00000+0 0  9996
2 43539  55.1503 168.7750 0078793 234.0173 313.9142  1.00290224 22527
BEIDOU-3 M5 (C23)       
1 43581U 18062A   24240.26214485  .00000042  00000+0  00000+0 0  9996
2 43581  54.1279 204.7136 0005074 284.6350  75.2823  1.86228632 41367
BEIDOU-3 M6 (C24)       
1 43582U 18062B   24240.12765414  .00000044  00000+0  00000+0 0  9997
2 43582  54.1276 204.7076 0005004   3.3898 356.5873  1.86229645 41369
BEIDOU-3 M12 (C26)      
1 43602U 18067A   24239.52355421  .00000050  00000+0  00000+0 0  9997
2 43602  54.2185 203.4163 0007207  20.1910 339.8113  1.86229586 40830
BEIDOU-3 M11 (C25)      
1 43603U 18067B   24240.19425727  .00000041  00000+0  00000+0 0  9990
2 43603  54.2156 203.3585 0004093   4.1966 355.7799  1.86231374 40878
BEIDOU-3 M13 (C32)      
1 43622U 18072A   24240.15606383 -.00000031  00000+0  00000+0 0  9992
2 43622  56.0496  84.5122 0004513 312.8302  47.2025  1.86231442 40389
BEIDOU-3 M14 (C33)      
1 43623U 18072B   24240.02152160 -.00000032  00000+0  00000+0 0  9999
2 43623  56.0516  84.5100 0003590   2.6588 357.4136  1.86231456 40376
BEIDOU-3 M16 (C35)      
1 43647U 18078A   24240.18380306 -.00000099  00000+0  00000+0 0  9996
2 43647  54.6598 322.9757 0005853  17.4606 342.6051  1.86232167 39899
BEIDOU-3 M15 (C34)      
1 43648U 18078B   24240.31293880 -.00000099  00000+0  00000+0 0  9992
2 43648  54.6554 322.9738 0002630  30.6287 329.4322  1.86232243 39915
BEIDOU-3 G1 (C59)       
1 43683U 18085A   24239.87489942 -.00000292  00000+0  00000+0 0  9999
2 43683   2.3617 106.9717 0002475  27.1196 296.5001  1.00268312 21447
BEIDOU-3 M17 (C36)      
1 43706U 18093A   24239.92713577  .00000047  00000+0  00000+0 0  9991
2 43706  54.2110 204.6687 0009973 284.5030  75.3604  1.86228263 39249
BEIDOU-3 M18 (C37)      
1 43707U 18093B   24240.32885975  .00000041  00000+0  00000+0 0  9994
2 43707  54.2117 204.6468 0008141 311.0019  48.9010  1.86229799 39267
BEIDOU-3 IGSO-1 (C38)   
1 44204U 19023A   24239.87082295 -.00000206  00000+0  00000+0 0  9997
2 44204  57.7506  44.4831 0023449 204.6866 159.4862  1.00279951   609
BEIDOU-2 G8 (C01)       
1 44231U 19027A   24240.16188892 -.00000260  00000+0  00000+0 0  9995
2 44231   1.6483  74.2729 0002631 180.7065 283.6634  1.00274953 19461
BEIDOU-3 IGSO-2 (C39)   
1 44337U 19035A   24239.74929723 -.00000158  00000+0  00000+0 0  9995
2 44337  55.1832 164.6516 0034977 203.9468 355.8131  1.00275120 19057
BEIDOU-3 M24 (C46)      
1 44542U 19061A   24239.86161432  .00000049  00000+0  00000+0 0  9998
2 44542  54.4385 204.9714 0008322 347.6615  12.2923  1.86229292 33516
BEIDOU-3 M23 (C45)      
1 44543U 19061B   24237.58205611  .00000064  00000+0  00000+0 0  9991
2 44543  54.4374 205.0169 0005660 328.9153 215.2556  1.86229312 33466
BEIDOU-3 IGSO-3 (C40)   
1 44709U 19073A   24239.53708641 -.00000172  00000+0  00000+0 0  9997
2 44709  55.9293 287.9823 0041323 190.1869 169.8218  1.00281262 17820
BEIDOU-3 M22 (C44)      
1 44793U 19078A   24240.24398821 -.00000099  00000+0  00000+0 0  9998
2 44793  54.5073 322.8969 0004509  22.8850 337.1806  1.86232098 32388
BEIDOU-3 M21 (C43)      
1 44794U 19078B   24239.83665402 -.00000099  00000+0  00000+0 0  9994
2 44794  54.4812 322.8857 0002532  14.7695 345.2837  1.86232595 32371
BEIDOU-3 M19 (C41)      
1 44864U 19090A   24240.35238639 -.00000030  00000+0  00000+0 0  9998
2 44864  55.9842  84.6721 0015533 283.0785 255.2842  1.86231643 31959
BEIDOU-3 M20 (C42)      
1 44865U 19090B   24240.25324728 -.00000031  00000+0  00000+0 0  9994
2 44865  55.9859  84.7091 0013349 298.5580 263.0475  1.86231564 31935
BEIDOU-3 G2 (C60)       
1 45344U 20017A   24240.14911751 -.00000153  00000+0  00000+0 0  9999
2 45344   2.4060  32.2073 0003048 171.7173 265.6623  1.00271711 16662
BEIDOU-3 G3 (C61)       
1 45807U 20040A   24240.08360973 -.00000365  00000+0  00000+0 0  9991
2 45807   0.9043  49.8554 0002149 345.7864  80.7632  1.00267121 15473
BEIDOU-3 G4             
1 56564U 23066A   24239.87880904 -.00000122  00000+0  00000+0 0  9991
2 56564   1.9502 288.3500 0006012 225.7896 297.8406  1.00271055  4785
BEIDOU-3 M25            
1 58654U 23207A   24239.38258255 -.00000036  00000+0  00000+0 0  9998
2 58654  55.1670  84.6722 0000463 333.7191  26.3483  1.86232272  4556
BEIDOU-3 M26            
1 58655U 23207B   24239.18168176 -.00000036  00000+0  00000+0 0  9999
2 58655  55.1690  84.6645 0001365 239.0291 121.0273  1.86231853  4536
